start=new Date('2023-06-21T00:00:00.000Z').valueOf();
sats=[{"SITE":"AFETR","INCLINATION":"53.2164","DECAY_DATE":null,"CLASSIFICATION_TYPE":"U","ECCENTRICITY":"0.00011250","EPHEMERIS_TYPE":"0","ELEMENT_SET_NO":"999","OBJECT_ID":"2022-076Q","CENTER_NAME":"EARTH","SEMIMAJOR_AXIS":"6917.885","GP_ID":"234393555","NORAD_CAT_ID":"53000","PERIAPSIS":"538.971","APOAPSIS":"540.528","RCS_SIZE":"LARGE","MEAN_ELEMENT_THEORY":"SGP4","OBJECT_NAME":"STARLINK-4194","REF_FRAME":"TEME","REV_AT_EPOCH":"5291","MEAN_MOTION":"15.08838601","TIME_SYSTEM":"UTC","MEAN_MOTION_DOT":"-0.00000181","BSTAR":"0.00000668040000","OBJECT_TYPE":"PAYLOAD","MEAN_ANOMALY":"252.9254","ARG_OF_PERICENTER":"107.1861","EPOCH":"2023-06-20T13:14:52.190016","LAUNCH_DATE":"2022-07-07","MEAN_MOTION_DDOT":"0.0000000000000","FILE":"3938544","RA_OF_ASC_NODE":"232.4908","TLE_LINE1":"1 53000U 22076Q   23171.55199294 -.00000181  00000-0  66804-5 0  9993","TLE_LINE2":"2 53000  53.2164 232.4908 0001125 107.1861 252.9254 15.08838601 52918","COUNTRY_CODE":"US","PERIOD":"95.438"},{"MEAN_MOTION_DDOT":"0.0000000000000","FILE":"3938544","TLE_LINE1":"1 53001U 22076R   23171.59983301  .00000827  00000-0  70017-4 0  9994","RA_OF_ASC_NODE":"232.2754","TLE_LINE2":"2 53001  53.2170 232.2754 0001294  90.7623 269.3517 15.08836742 52922","COUNTRY_CODE":"US","PERIOD":"95.438","MEAN_MOTION":"15.08836742","MEAN_MOTION_DOT":"0.00000827","TIME_SYSTEM":"UTC","OBJECT_TYPE":"PAYLOAD","BSTAR":"0.00007001700000","MEAN_ANOMALY":"269.3517","EPOCH":"2023-06-20T14:23:45.572064","ARG_OF_PERICENTER":"90.7623","LAUNCH_DATE":"2022-07-07","EPHEMERIS_TYPE":"0","ELEMENT_SET_NO":"999","OBJECT_ID":"2022-076R","CENTER_NAME":"EARTH","SEMIMAJOR_AXIS":"6917.890","GP_ID":"234394305","NORAD_CAT_ID":"53001","PERIAPSIS":"538.860","APOAPSIS":"540.651","RCS_SIZE":"LARGE","MEAN_ELEMENT_THEORY":"SGP4","OBJECT_NAME":"STARLINK-4190","REF_FRAME":"TEME","REV_AT_EPOCH":"5292","SITE":"AFETR","INCLINATION":"53.2170","DECAY_DATE":null,"CLASSIFICATION_TYPE":"U","ECCENTRICITY":"0.00012940"},{"CLASSIFICATION_TYPE":"U","DECAY_DATE":null,"ECCENTRICITY":"0.00008090","INCLINATION":"53.2153","SITE":"AFETR","MEAN_ELEMENT_THEORY":"SGP4","RCS_SIZE":"LARGE","REV_AT_EPOCH":"5291","OBJECT_NAME":"STARLINK-4121","REF_FRAME":"TEME","CENTER_NAME":"EARTH","OBJECT_ID":"2022-076S","ELEMENT_SET_NO":"999","EPHEMERIS_TYPE":"0","APOAPSIS":"540.258","PERIAPSIS":"539.139","SEMIMAJOR_AXIS":"6917.833","GP_ID":"234394556","NORAD_CAT_ID":"53002","MEAN_ANOMALY":"275.2250","LAUNCH_DATE":"2022-07-07","EPOCH":"2023-06-20T13:09:33.254784","ARG_OF_PERICENTER":"84.8835","MEAN_MOTION":"15.08855407","BSTAR":"-0.00057748000000","OBJECT_TYPE":"PAYLOAD","TIME_SYSTEM":"UTC","MEAN_MOTION_DOT":"-0.00009470","TLE_LINE1":"1 53002U 22076S   23171.54830156 -.00009470  00000-0 -57748-3 0  9999","RA_OF_ASC_NODE":"232.5065","FILE":"3938544","PERIOD":"95.437","COUNTRY_CODE":"US","TLE_LINE2":"2 53002  53.2153 232.5065 0000809  84.8835 275.2250 15.08855407 52910","MEAN_MOTION_DDOT":"0.0000000000000"},{"CLASSIFICATION_TYPE":"U","DECAY_DATE":null,"ECCENTRICITY":"0.00009650","SITE":"AFETR","INCLINATION":"53.2152","RCS_SIZE":"LARGE","MEAN_ELEMENT_THEORY":"SGP4","REF_FRAME":"TEME","OBJECT_NAME":"STARLINK-4255","REV_AT_EPOCH":"5337","ELEMENT_SET_NO":"999","EPHEMERIS_TYPE":"0","CENTER_NAME":"EARTH","OBJECT_ID":"2022-076T","GP_ID":"234365639","NORAD_CAT_ID":"53003","SEMIMAJOR_AXIS":"6917.864","APOAPSIS":"540.397","PERIAPSIS":"539.062","MEAN_ANOMALY":"301.9164","ARG_OF_PERICENTER":"58.1922","EPOCH":"2023-06-20T11:02:23.206848","LAUNCH_DATE":"2022-07-07","MEAN_MOTION":"15.08845209","TIME_SYSTEM":"UTC","MEAN_MOTION_DOT":"0.00001761","OBJECT_TYPE":"PAYLOAD","BSTAR":"0.00012869000000","RA_OF_ASC_NODE":"232.9020","TLE_LINE1":"1 53003U 22076T   23171.45999082  .00001761  00000-0  12869-3 0  9992","FILE":"3938335","TLE_LINE2":"2 53003  53.2152 232.9020 0000965  58.1922 301.9164 15.08845209 53370","PERIOD":"95.437","COUNTRY_CODE":"US","MEAN_MOTION_DDOT":"0.0000000000000"},{"FILE":"3938508","RA_OF_ASC_NODE":"232.8361","TLE_LINE1":"1 53004U 22076U   23171.47471177 -.00000463  00000-0 -11020-4 0  9994","TLE_LINE2":"2 53004  53.2146 232.8361 0001016  90.7676 269.3433 15.08844687 53372","COUNTRY_CODE":"US","PERIOD":"95.437","MEAN_MOTION_DDOT":"0.0000000000000","MEAN_ANOMALY":"269.3433","ARG_OF_PERICENTER":"90.7676","EPOCH":"2023-06-20T11:23:35.096928","LAUNCH_DATE":"2022-07-07","MEAN_MOTION":"15.08844687","TIME_SYSTEM":"UTC","MEAN_MOTION_DOT":"-0.00000463","BSTAR":"-0.00001102000000","OBJECT_TYPE":"PAYLOAD","RCS_SIZE":"LARGE","MEAN_ELEMENT_THEORY":"SGP4","REF_FRAME":"TEME","OBJECT_NAME":"STARLINK-4253","REV_AT_EPOCH":"5337","ELEMENT_SET_NO":"999","EPHEMERIS_TYPE":"0","OBJECT_ID":"2022-076U","CENTER_NAME":"EARTH","GP_ID":"234370761","SEMIMAJOR_AXIS":"6917.866","NORAD_CAT_ID":"53004","PERIAPSIS":"539.028","APOAPSIS":"540.434","DECAY_DATE":null,"CLASSIFICATION_TYPE":"U","ECCENTRICITY":"0.00010160","SITE":"AFETR","INCLINATION":"53.2146"},{"SEMIMAJOR_AXIS":"6917.909","GP_ID":"234393806","NORAD_CAT_ID":"53005","PERIAPSIS":"538.915","APOAPSIS":"540.633","EPHEMERIS_TYPE":"0","ELEMENT_SET_NO":"999","OBJECT_ID":"2022-076V","CENTER_NAME":"EARTH","REF_FRAME":"TEME","OBJECT_NAME":"STARLINK-4288","REV_AT_EPOCH":"5291","RCS_SIZE":"LARGE","MEAN_ELEMENT_THEORY":"SGP4","SITE":"AFETR","INCLINATION":"53.2163","ECCENTRICITY":"0.00012420","DECAY_DATE":null,"CLASSIFICATION_TYPE":"U","MEAN_MOTION_DDOT":"0.0000000000000","TLE_LINE2":"2 53005  53.2163 232.6201 0001242  87.7824 272.3310 15.08830590 52910","COUNTRY_CODE":"US","PERIOD":"95.438","FILE":"3938544","TLE_LINE1":"1 53005U 22076V   23171.52255267  .00002371  00000-0  16702-3 0  9990","RA_OF_ASC_NODE":"232.6201","MEAN_MOTION_DOT":"0.00002371","TIME_SYSTEM":"UTC","OBJECT_TYPE":"PAYLOAD","BSTAR":"0.00016702000000","MEAN_MOTION":"15.08830590","ARG_OF_PERICENTER":"87.7824","EPOCH":"2023-06-20T12:32:28.550688","LAUNCH_DATE":"2022-07-07","MEAN_ANOMALY":"272.3310"},{"SITE":"AFETR","INCLINATION":"53.2152","ECCENTRICITY":"0.00009210","DECAY_DATE":null,"CLASSIFICATION_TYPE":"U","GP_ID":"234361072","NORAD_CAT_ID":"53006","SEMIMAJOR_AXIS":"6917.883","PERIAPSIS":"539.110","APOAPSIS":"540.385","ELEMENT_SET_NO":"999","EPHEMERIS_TYPE":"0","OBJECT_ID":"2022-076W","CENTER_NAME":"EARTH","OBJECT_NAME":"STARLINK-4290","REF_FRAME":"TEME","REV_AT_EPOCH":"5290","RCS_SIZE":"LARGE","MEAN_ELEMENT_THEORY":"SGP4","MEAN_MOTION_DOT":"0.00000757","TIME_SYSTEM":"UTC","BSTAR":"0.00006560700000","OBJECT_TYPE":"PAYLOAD","MEAN_MOTION":"15.08839268","EPOCH":"2023-06-20T11:07:41.374848","ARG_OF_PERICENTER":"91.7722","LAUNCH_DATE":"2022-07-07","MEAN_ANOMALY":"268.3376","MEAN_MOTION_DDOT":"0.0000000000000","TLE_LINE2":"2 53006  53.2152 232.8867 0000921  91.7722 268.3376 15.08839268 52901","COUNTRY_CODE":"US","PERIOD":"95.438","FILE":"3938135","TLE_LINE1":"1 53006U 22076W   23171.46367332  .00000757  00000-0  65607-4 0  9996","RA_OF_ASC_NODE":"232.8867"},{"EPHEMERIS_TYPE":"0","ELEMENT_SET_NO":"999","OBJECT_ID":"2022-076X","CENTER_NAME":"EARTH","SEMIMAJOR_AXIS":"6917.875","GP_ID":"234361307","NORAD_CAT_ID":"53007","PERIAPSIS":"538.940","APOAPSIS":"540.539","RCS_SIZE":"LARGE","MEAN_ELEMENT_THEORY":"SGP4","REF_FRAME":"TEME","OBJECT_NAME":"STARLINK-4215","REV_AT_EPOCH":"5290","SITE":"AFETR","INCLINATION":"53.2144","DECAY_DATE":null,"CLASSIFICATION_TYPE":"U","ECCENTRICITY":"0.00011560","MEAN_MOTION_DDOT":"0.0000000000000","FILE":"3938135","RA_OF_ASC_NODE":"232.9493","TLE_LINE1":"1 53007U 22076X   23171.44895232  .00001261  00000-0  97310-4 0  9997","TLE_LINE2":"2 53007  53.2144 232.9493 0001156  73.5790 286.5329 15.08841859 52902","COUNTRY_CODE":"US","PERIOD":"95.437","MEAN_MOTION":"15.08841859","TIME_SYSTEM":"UTC","MEAN_MOTION_DOT":"0.00001261","BSTAR":"0.00009731000000","OBJECT_TYPE":"PAYLOAD","MEAN_ANOMALY":"286.5329","ARG_OF_PERICENTER":"73.5790","EPOCH":"2023-06-20T10:46:29.480448","LAUNCH_DATE":"2022-07-07"},{"REF_FRAME":"TEME","OBJECT_NAME":"STARLINK-4275","REV_AT_EPOCH":"5290","RCS_SIZE":"LARGE","MEAN_ELEMENT_THEORY":"SGP4","GP_ID":"234360572","NORAD_CAT_ID":"53008","SEMIMAJOR_AXIS":"6917.879","APOAPSIS":"540.490","PERIAPSIS":"538.997","EPHEMERIS_TYPE":"0","ELEMENT_SET_NO":"999","CENTER_NAME":"EARTH","OBJECT_ID":"2022-076Y","ECCENTRICITY":"0.00010790","CLASSIFICATION_TYPE":"U","DECAY_DATE":null,"SITE":"AFETR","INCLINATION":"53.2146","TLE_LINE2":"2 53008  53.2146 232.9285 0001079  69.2805 290.8303 15.08840577 52903","PERIOD":"95.438","COUNTRY_CODE":"US","TLE_LINE1":"1 53008U 22076Y   23171.45358824  .00000405  00000-0  43498-4 0  9997","RA_OF_ASC_NODE":"232.9285","FILE":"3938135","MEAN_MOTION_DDOT":"0.0000000000000","ARG_OF_PERICENTER":"69.2805","EPOCH":"2023-06-20T10:53:10.023936","LAUNCH_DATE":"2022-07-07","MEAN_ANOMALY":"290.8303","MEAN_MOTION_DOT":"0.00000405","TIME_SYSTEM":"UTC","OBJECT_TYPE":"PAYLOAD","BSTAR":"0.00004349800000","MEAN_MOTION":"15.08840577"},{"MEAN_ANOMALY":"267.0240","LAUNCH_DATE":"2022-07-07","EPOCH":"2023-06-20T13:37:23.276064","ARG_OF_PERICENTER":"93.0866","MEAN_MOTION":"15.08845054","BSTAR":"0.00009273700000","OBJECT_TYPE":"PAYLOAD","MEAN_MOTION_DOT":"0.00001189","TIME_SYSTEM":"UTC","TLE_LINE1":"1 53009U 22076Z   23171.56763051  .00001189  00000-0  92737-4 0  9992","RA_OF_ASC_NODE":"222.4212","FILE":"3938544","PERIOD":"95.437","COUNTRY_CODE":"US","TLE_LINE2":"2 53009  53.2150 222.4212 0000996  93.0866 267.0240 15.08845054 53050","MEAN_MOTION_DDOT":"0.0000000000000","CLASSIFICATION_TYPE":"U","DECAY_DATE":null,"ECCENTRICITY":"0.00009960","INCLINATION":"53.2150","SITE":"AFETR","MEAN_ELEMENT_THEORY":"SGP4","RCS_SIZE":"LARGE","REV_AT_EPOCH":"5305","REF_FRAME":"TEME","OBJECT_NAME":"STARLINK-4277","CENTER_NAME":"EARTH","OBJECT_ID":"2022-076Z","EPHEMERIS_TYPE":"0","ELEMENT_SET_NO":"999","APOAPSIS":"540.419","PERIAPSIS":"539.041","GP_ID":"234394306","SEMIMAJOR_AXIS":"6917.865","NORAD_CAT_ID":"53009"}];
